[{"OBJECT_NAME":"FOX-1CLIFF (AO-95)","OBJECT_ID":"2018-099N","EPOCH":"2022-08-19T04:08:32.230464","MEAN_MOTION":14.96683346,"ECCENTRICITY":0.001516,"INCLINATION":97.6158,"RA_OF_ASC_NODE":295.8906,"ARG_OF_PERICENTER":68.0692,"MEAN_ANOMALY":292.2139,"EPHEMERIS_TYPE":0,"CLASSIFICATION_TYPE":"U","NORAD_CAT_ID":43770,"ELEMENT_SET_NO":999,"REV_AT_EPOCH":20239,"BSTAR":0.00021035,"MEAN_MOTION_DOT":2.349e-5,"MEAN_MOTION_DDOT":0},{"OBJECT_NAME":"RANGE-A","OBJECT_ID":"2018-099Q","EPOCH":"2022-08-19T03:20:44.295648","MEAN_MOTION":14.97383802,"ECCENTRICITY":0.0015062,"INCLINATION":97.628,"RA_OF_ASC_NODE":297.6834,"ARG_OF_PERICENTER":57.2762,"MEAN_ANOMALY":302.991,"EPHEMERIS_TYPE":0,"CLASSIFICATION_TYPE":"U","NORAD_CAT_ID":43772,"ELEMENT_SET_NO":999,"REV_AT_EPOCH":20241,"BSTAR":0.00033939,"MEAN_MOTION_DOT":3.896e-5,"MEAN_MOTION_DDOT":0},{"OBJECT_NAME":"RANGE-B","OBJECT_ID":"2018-099R","EPOCH":"2022-08-18T04:14:36.634560","MEAN_MOTION":14.96208192,"ECCENTRICITY":0.0014355,"INCLINATION":97.6088,"RA_OF_ASC_NODE":293.7026,"ARG_OF_PERICENTER":60.0876,"MEAN_ANOMALY":300.177,"EPHEMERIS_TYPE":0,"CLASSIFICATION_TYPE":"U","NORAD_CAT_ID":43773,"ELEMENT_SET_NO":999,"REV_AT_EPOCH":20222,"BSTAR":0.00016111,"MEAN_MOTION_DOT":1.763e-5,"MEAN_MOTION_DDOT":0},{"OBJECT_NAME":"2018-099T","OBJECT_ID":"2018-099T","EPOCH":"2022-08-19T04:10:42.957120","MEAN_MOTION":14.96156211,"ECCENTRICITY":0.0015471,"INCLINATION":97.6164,"RA_OF_ASC_NODE":295.9665,"ARG_OF_PERICENTER":60.3588,"MEAN_ANOMALY":299.9172,"EPHEMERIS_TYPE":0,"CLASSIFICATION_TYPE":"U","NORAD_CAT_ID":43775,"ELEMENT_SET_NO":999,"REV_AT_EPOCH":20237,"BSTAR":0.00011185,"MEAN_MOTION_DOT":1.205e-5,"MEAN_MOTION_DDOT":0},{"OBJECT_NAME":"MOVE-II","OBJECT_ID":"2018-099Y","EPOCH":"2022-08-19T03:24:19.823904","MEAN_MOTION":14.98140887,"ECCENTRICITY":0.0014594,"INCLINATION":97.6213,"RA_OF_ASC_NODE":297.1418,"ARG_OF_PERICENTER":65.3099,"MEAN_ANOMALY":294.9642,"EPHEMERIS_TYPE":0,"CLASSIFICATION_TYPE":"U","NORAD_CAT_ID":43780,"ELEMENT_SET_NO":999,"REV_AT_EPOCH":20244,"BSTAR":0.00043027,"MEAN_MOTION_DOT":5.053e-5,"MEAN_MOTION_DDOT":0},{"OBJECT_NAME":"SNUSAT-2","OBJECT_ID":"2018-099AA","EPOCH":"2022-08-19T03:30:30.928320","MEAN_MOTION":14.9683787,"ECCENTRICITY":0.0013739,"INCLINATION":97.6174,"RA_OF_ASC_NODE":296.3434,"ARG_OF_PERICENTER":55.7989,"MEAN_ANOMALY":304.4533,"EPHEMERIS_TYPE":0,"CLASSIFICATION_TYPE":"U","NORAD_CAT_ID":43782,"ELEMENT_SET_NO":999,"REV_AT_EPOCH":20241,"BSTAR":0.00018883,"MEAN_MOTION_DOT":2.11e-5,"MEAN_MOTION_DDOT":0},{"OBJECT_NAME":"SNUGLITE","OBJECT_ID":"2018-099AC","EPOCH":"2022-08-19T04:11:11.131296","MEAN_MOTION":14.97067085,"ECCENTRICITY":0.0015541,"INCLINATION":97.6121,"RA_OF_ASC_NODE":296.0038,"ARG_OF_PERICENTER":61.3801,"MEAN_ANOMALY":298.8982,"EPHEMERIS_TYPE":0,"CLASSIFICATION_TYPE":"U","NORAD_CAT_ID":43784,"ELEMENT_SET_NO":999,"REV_AT_EPOCH":20244,"BSTAR":0.00021718,"MEAN_MOTION_DOT":2.452e-5,"MEAN_MOTION_DDOT":0},{"OBJECT_NAME":"ITASAT 1","OBJECT_ID":"2018-099AE","EPOCH":"2022-08-19T03:51:03.737088","MEAN_MOTION":14.96799506,"ECCENTRICITY":0.0016069,"INCLINATION":97.6195,"RA_OF_ASC_NODE":296.8307,"ARG_OF_PERICENTER":60.8713,"MEAN_ANOMALY":299.4115,"EPHEMERIS_TYPE":0,"CLASSIFICATION_TYPE":"U","NORAD_CAT_ID":43786,"ELEMENT_SET_NO":999,"REV_AT_EPOCH":20243,"BSTAR":0.00012246,"MEAN_MOTION_DOT":1.348e-5,"MEAN_MOTION_DDOT":0},{"OBJECT_NAME":"KAZSCISAT-1","OBJECT_ID":"2018-099AF","EPOCH":"2022-08-19T02:59:42.593856","MEAN_MOTION":14.98116685,"ECCENTRICITY":0.0014636,"INCLINATION":97.6105,"RA_OF_ASC_NODE":296.0406,"ARG_OF_PERICENTER":58.9842,"MEAN_ANOMALY":301.2816,"EPHEMERIS_TYPE":0,"CLASSIFICATION_TYPE":"U","NORAD_CAT_ID":43787,"ELEMENT_SET_NO":999,"REV_AT_EPOCH":20248,"BSTAR":0.00038764,"MEAN_MOTION_DOT":4.543e-5,"MEAN_MOTION_DDOT":0},{"OBJECT_NAME":"EAGLET-I","OBJECT_ID":"2018-099AJ","EPOCH":"2022-08-19T04:23:22.255008","MEAN_MOTION":14.96928689,"ECCENTRICITY":0.001415,"INCLINATION":97.618,"RA_OF_ASC_NODE":297.3926,"ARG_OF_PERICENTER":64.6461,"MEAN_ANOMALY":295.6225,"EPHEMERIS_TYPE":0,"CLASSIFICATION_TYPE":"U","NORAD_CAT_ID":43790,"ELEMENT_SET_NO":999,"REV_AT_EPOCH":20217,"BSTAR":0.00013461,"MEAN_MOTION_DOT":1.492e-5,"MEAN_MOTION_DDOT":0},{"OBJECT_NAME":"ESEO","OBJECT_ID":"2018-099AL","EPOCH":"2022-08-19T03:25:42.581280","MEAN_MOTION":14.96296852,"ECCENTRICITY":0.0014661,"INCLINATION":97.6141,"RA_OF_ASC_NODE":296.4779,"ARG_OF_PERICENTER":62.9678,"MEAN_ANOMALY":297.3038,"EPHEMERIS_TYPE":0,"CLASSIFICATION_TYPE":"U","NORAD_CAT_ID":43792,"ELEMENT_SET_NO":999,"REV_AT_EPOCH":20220,"BSTAR":0.00011294,"MEAN_MOTION_DOT":1.222e-5,"MEAN_MOTION_DDOT":0},{"OBJECT_NAME":"CSIM-FD","OBJECT_ID":"2018-099AM","EPOCH":"2022-08-19T03:41:15.129312","MEAN_MOTION":14.98824042,"ECCENTRICITY":0.0014154,"INCLINATION":97.6233,"RA_OF_ASC_NODE":298.1139,"ARG_OF_PERICENTER":56.8,"MEAN_ANOMALY":303.4578,"EPHEMERIS_TYPE":0,"CLASSIFICATION_TYPE":"U","NORAD_CAT_ID":43793,"ELEMENT_SET_NO":999,"REV_AT_EPOCH":20227,"BSTAR":0.00034271,"MEAN_MOTION_DOT":4.084e-5,"MEAN_MOTION_DDOT":0},{"OBJECT_NAME":"ASTROCAST 0.1","OBJECT_ID":"2018-099AS","EPOCH":"2022-08-19T04:44:39.593472","MEAN_MOTION":14.97961952,"ECCENTRICITY":0.001278,"INCLINATION":97.6191,"RA_OF_ASC_NODE":297.9651,"ARG_OF_PERICENTER":45.7963,"MEAN_ANOMALY":314.4307,"EPHEMERIS_TYPE":0,"CLASSIFICATION_TYPE":"U","NORAD_CAT_ID":43798,"ELEMENT_SET_NO":999,"REV_AT_EPOCH":20250,"BSTAR":0.00038686,"MEAN_MOTION_DOT":4.514e-5,"MEAN_MOTION_DDOT":0},{"OBJECT_NAME":"JY1SAT (JO-97)","OBJECT_ID":"2018-099AX","EPOCH":"2022-08-19T03:45:09.808128","MEAN_MOTION":14.97352819,"ECCENTRICITY":0.0015986,"INCLINATION":97.6157,"RA_OF_ASC_NODE":296.6012,"ARG_OF_PERICENTER":60.0305,"MEAN_ANOMALY":300.2502,"EPHEMERIS_TYPE":0,"CLASSIFICATION_TYPE":"U","NORAD_CAT_ID":43803,"ELEMENT_SET_NO":999,"REV_AT_EPOCH":20245,"BSTAR":0.00017668,"MEAN_MOTION_DOT":1.999e-5,"MEAN_MOTION_DDOT":0},{"OBJECT_NAME":"SUOMI-100","OBJECT_ID":"2018-099AY","EPOCH":"2022-08-18T20:15:54.547776","MEAN_MOTION":14.97233249,"ECCENTRICITY":0.0015621,"INCLINATION":97.614,"RA_OF_ASC_NODE":296.2061,"ARG_OF_PERICENTER":61.5197,"MEAN_ANOMALY":298.7597,"EPHEMERIS_TYPE":0,"CLASSIFICATION_TYPE":"U","NORAD_CAT_ID":43804,"ELEMENT_SET_NO":999,"REV_AT_EPOCH":20241,"BSTAR":0.00023928,"MEAN_MOTION_DOT":2.719e-5,"MEAN_MOTION_DDOT":0},{"OBJECT_NAME":"AL-FARABI 2","OBJECT_ID":"2018-099AZ","EPOCH":"2022-08-19T00:10:02.648640","MEAN_MOTION":14.97879169,"ECCENTRICITY":0.0016116,"INCLINATION":97.6173,"RA_OF_ASC_NODE":296.92,"ARG_OF_PERICENTER":61.9962,"MEAN_ANOMALY":298.2901,"EPHEMERIS_TYPE":0,"CLASSIFICATION_TYPE":"U","NORAD_CAT_ID":43805,"ELEMENT_SET_NO":999,"REV_AT_EPOCH":20246,"BSTAR":0.00029515,"MEAN_MOTION_DOT":3.425e-5,"MEAN_MOTION_DDOT":0},{"OBJECT_NAME":"CENTAURI-1","OBJECT_ID":"2018-099BD","EPOCH":"2022-08-19T03:46:14.198592","MEAN_MOTION":14.96914829,"ECCENTRICITY":0.0016224,"INCLINATION":97.6167,"RA_OF_ASC_NODE":296.8074,"ARG_OF_PERICENTER":61.4699,"MEAN_ANOMALY":298.8154,"EPHEMERIS_TYPE":0,"CLASSIFICATION_TYPE":"U","NORAD_CAT_ID":43809,"ELEMENT_SET_NO":999,"REV_AT_EPOCH":20215,"BSTAR":0.00011354,"MEAN_MOTION_DOT":1.249e-5,"MEAN_MOTION_DDOT":0}]