FOX-1CLIFF (AO-95)      
1 43770U 18099N   22231.17259526  .00002349  00000+0  21035-3 0  9996
2 43770  97.6158 295.8906 0015160  68.0692 292.2139 14.96683346202396
RANGE-A                 
1 43772U 18099Q   22231.13940157  .00003896  00000+0  33939-3 0  9995
2 43772  97.6280 297.6834 0015062  57.2762 302.9910 14.97383802202417
RANGE-B                 
1 43773U 18099R   22230.17681290  .00001763  00000+0  16111-3 0  9993
2 43773  97.6088 293.7026 0014355  60.0876 300.1770 14.96208192202226
2018-099T               
1 43775U 18099T   22231.17410830  .00001205  00000+0  11185-3 0  9993
2 43775  97.6164 295.9665 0015471  60.3588 299.9172 14.96156211202370
MOVE-II                 
1 43780U 18099Y   22231.14189611  .00005053  00000+0  43027-3 0  9991
2 43780  97.6213 297.1418 0014594  65.3099 294.9642 14.98140887202447
SNUSAT-2                
1 43782U 18099AA  22231.14619130  .00002110  00000+0  18883-3 0  9990
2 43782  97.6174 296.3434 0013739  55.7989 304.4533 14.96837870202411
SNUGLITE                
1 43784U 18099AC  22231.17443439  .00002452  00000+0  21718-3 0  9992
2 43784  97.6121 296.0038 0015541  61.3801 298.8982 14.97067085202442
ITASAT 1                
1 43786U 18099AE  22231.16045992  .00001348  00000+0  12246-3 0  9994
2 43786  97.6195 296.8307 0016069  60.8713 299.4115 14.96799506202437
KAZSCISAT-1             
1 43787U 18099AF  22231.12479854  .00004543  00000+0  38764-3 0  9992
2 43787  97.6105 296.0406 0014636  58.9842 301.2816 14.98116685202488
EAGLET-I                
1 43790U 18099AJ  22231.18289647  .00001492  00000+0  13461-3 0  9998
2 43790  97.6180 297.3926 0014150  64.6461 295.6225 14.96928689202177
ESEO                    
1 43792U 18099AL  22231.14285395  .00001222  00000+0  11294-3 0  9995
2 43792  97.6141 296.4779 0014661  62.9678 297.3038 14.96296852202205
CSIM-FD                 
1 43793U 18099AM  22231.15364733  .00004084  00000+0  34271-3 0  9990
2 43793  97.6233 298.1139 0014154  56.8000 303.4578 14.98824042202270
ASTROCAST 0.1           
1 43798U 18099AS  22231.19768048  .00004514  00000+0  38686-3 0  9998
2 43798  97.6191 297.9651 0012780  45.7963 314.4307 14.97961952202501
JY1SAT (JO-97)          
1 43803U 18099AX  22231.15636352  .00001999  00000+0  17668-3 0  9994
2 43803  97.6157 296.6012 0015986  60.0305 300.2502 14.97352819202458
SUOMI-100               
1 43804U 18099AY  22230.84438134  .00002719  00000+0  23928-3 0  9995
2 43804  97.6140 296.2061 0015621  61.5197 298.7597 14.97233249202418
AL-FARABI 2             
1 43805U 18099AZ  22231.00697510  .00003425  00000+0  29515-3 0  9993
2 43805  97.6173 296.9200 0016116  61.9962 298.2901 14.97879169202467
CENTAURI-1              
1 43809U 18099BD  22231.15710878  .00001249  00000+0  11354-3 0  9990
2 43809  97.6167 296.8074 0016224  61.4699 298.8154 14.96914829202158
